ALOS (DAICHI)           
1 28931U 06002A   26055.84043027  .00001386  00000+0  24068-3 0  9997
2 28931  98.1196  11.8628 0001468  53.6816 306.4525 14.69761698 71597
H-2A R/B                
1 28932U 06002B   26056.13651413  .00007908  00000+0  40050-3 0  9990
2 28932  98.2387 202.0859 0051982 284.3404  75.2058 15.16118804 92530
RESURS-DK 1             
1 29228U 06021A   26055.90538654  .00002070  00000+0  12423-3 0  9993
2 29228  69.9313 270.0941 0002838 173.4781 186.6422 15.12653726 85595
CZ-4B R/B               
1 29507U 06046C   26056.07512789  .00004456  00000+0  22772-3 0  9998
2 29507  97.5624 101.0176 0032094 313.1500  46.7050 15.16753501 58138
CZ-2C R/B               
1 31114U 07010B   26056.18575472  .00000101  00000+0  65638-4 0  9999
2 31114  98.3975 170.0919 0058334 331.5512  28.2484 14.20241178977947
COSMO-SKYMED 1          
1 31598U 07023A   26056.16073752  .00002610  00000+0  23548-3 0  9991
2 31598  97.8879 247.0932 0001292  83.3345 276.8023 14.96428226 13032
COSMOS 2428             
1 31792U 07029A   26055.86239512  .00000176  00000+0  12020-3 0  9995
2 31792  70.9406 230.2678 0008370 290.8326  69.1898 14.12942196962283
SL-16 R/B               
1 31793U 07029B   26055.85737163 -.00000182  00000+0 -69651-4 0  9992
2 31793  70.9754 199.3567 0002471 280.6127 241.4154 14.14835837963550
KORONAS-FOTON           
1 33504U 09003A   26056.11956238  .00011879  00000+0  26845-3 0  9994
2 33504  82.4296 288.9440 0010125 193.7977 166.2995 15.42975756943808
CZ-2C R/B               
1 37731U 11030B   26055.44860906  .00001663  00000+0  21556-3 0  9998
2 37731  97.8522  12.9797 0053621  34.8280  78.5792 14.81162471788133
H-2A R/B                
1 38341U 12025E   26055.87889989  .00002935  00000+0  26923-3 0  9996
2 38341  98.4705  21.9039 0044761 356.5717   3.5188 14.95039629746307
SHIJIAN-16 (SJ-16)      
1 39358U 13057A   26056.15949350  .00001255  00000+0  12551-3 0  9998
2 39358  74.9715 208.8064 0016058 144.6237 215.6020 14.92280962669637
